#dP2020  4 20  0  0  0.00000000      96 __u+U ITR00 FIT  IAC
## 2102  86400.00000000   900.00000000 58959 0.0000000000000
+  119   C01C02C03C04C05C06C07C08C09C10C11C12C13C14C16C19C20
+        C21C22C23C24C25C26C27C28C29C30C32C33C34C35C36C37C43
+        C46C60E01E02E03E04E05E07E08E09E11E12E13E14E15E18E19
+        E21E24E25E26E27E30E31E33E36G01G02G03G04G05G06G07G08
+        G09G10G11G12G13G14G15G16G17G18G19G20G21G22G23G24G25
+        G26G27G28G29G30G31G32J01J02J03J07R01R02R03R04R05R07
+        R08R09R11R12R13R14R15R16R17R18R19R20R21R22R23R24R26
++         0 13 13 13 13  8  8  8  8  8  8  8  8  7  8  8  8
++         8  8  8  7  8  7  8  8  8  8  8  8  8  8  8  8  9
++         0 14  5  5  4  5  4  5  5  4  4  5  5  4  4  4  5
++         4  5  4  4  5  5  5  5  4  3  3  3  3  4  3  4  3
++         3  3  4  3  4  3  4  4  4  3  3  4  4  3  4  4  3
++         3  4  4  4  3  3  3  8  9  8 14  6  5  5  5  5  6
++         5  5  6  5  6  5  5  6  5  5  6  6  5  5  5  5  8
%c M  cc GPS ccc cccc cccc cccc cccc ccccc ccccc ccccc ccccc
%c cc cc ccc ccc cccc cccc cccc cccc ccccc ccccc ccccc ccccc
%f  0.0000000  0.000000000  0.00000000000  0.000000000000000
%f  0.0000000  0.000000000  0.00000000000  0.000000000000000
%i    0    0    0    0      0      0      0      0         0
%i    0    0    0    0      0      0      0      0         0
/* INFORMATION & ANALYSIS CENTER (IAC)            RAPID DATA
/* S/V CLOCKS ARE ALIGNED TO GNSS TIME                      
/* G:C1WC2W R:C1PC2P E:C1XC5X C:C2IC6I J:C1CC2S             
/* PCV:IGS14_2101 OL/AL:FES2004  NONE     YN ORB:CoN CLK:CoN
*  2020 04 20 14 15  0.00000000
PC01      0.000000      0.000000      0.000000 999999.999999
PC02   4404.159491  41933.201908   1158.980659    403.517892
PC03 -14847.857180  39461.319053    935.420014    444.163697
PC04 -39621.005701  14410.743382    -27.896174   -251.383417
PC05  21865.222176  36062.712011    824.823489     -6.964431
PC06 -21418.424544  36582.069578   -396.562893    198.449149
PC07  -9320.658255  28248.655855 -29524.684003    848.369077
PC08 -21135.841252  18849.715548  31210.685052   -211.074047
PC09 -10960.046353  37572.646172 -15919.340261    485.653022
PC10   4248.913754  35960.246052 -21088.621271   -875.795988
PC11   4917.483070  15705.902339  22585.420429   -315.041095
PC12 -12402.544175  22271.574542  11363.220661    354.286233
PC13  -4931.106510  22971.207677  35082.311742    392.253922
PC14  10354.531192  25341.269844  -5224.023077    318.210423
PC16 -18309.286301  37833.113717  -4371.082238   -672.828963
PC19 -14839.007583 -19368.379584  13591.388507    388.141981
PC20  -4945.374275 -27311.151920  -3032.116080   -903.300274
PC21  -8338.236253  19183.499524  18485.309596   -306.863770
PC22 -16319.187055    -67.075700  22651.203195   -829.402048
PC23  26617.092365   1709.162725   8203.392306   -903.999959
PC24   5037.216024  17275.540243 -21343.484805   -850.674137
PC25  23150.899217  12730.933789  -9016.144171   -589.595965
PC26 -14221.614950  11632.968811 -21001.502307    651.108027
PC27  18977.817740 -20281.114190  -2577.328734    316.210961
PC28  22659.306985  -7678.346630  14369.484595    307.231506
PC29 -13432.728789  -8855.305655 -22808.081904    217.539607
PC30   3691.915012 -21216.710453 -17735.456357    304.954971
PC32   8147.120413 -19306.002151 -18413.551669   -913.285054
PC33  14900.257902  19338.095523 -13488.622695   -862.796205
PC34  -3359.690840  21093.590651  17967.948811   -649.398218
PC35 -22402.235420   8298.108669 -14456.117909   -882.539377
PC36 -22692.182489 -13378.358067   9240.664541   -823.132723
PC37  15143.889400 -10930.749139  20752.909643   -843.896842
PC43  13227.816990   9270.415972  22750.296480   -158.553017
PC46      0.000000      0.000000      0.000000 999999.999999
PC60   7270.271274  41533.908910    163.020896     -0.152774
PE01 -16869.718850   6169.644273 -23530.676640   -839.908536
PE02  16818.728954  -6225.972536  23544.876695    127.777449
PE03  16039.976577 -17541.104643 -17644.680128   -289.986322
PE04  -6189.493093  28927.751029   1031.647436   -509.370963
PE05  16605.875006   4290.183782 -24118.128110   -387.012126
PE07  -7476.653743 -23446.102810  16467.188595   -370.792256
PE08   5842.559384 -29013.518776   -816.059145   6189.639592
PE09   7581.914419  23302.250790 -16584.075152   6086.883609
PE11  11301.149439  12835.723562  24153.087674   2376.652998
PE12 -10897.876484  18347.840150  20527.672932   5844.778840
PE13 -11098.479642 -12831.696048 -24250.488055    400.216551
PE14   5371.141106  16651.369719  15793.236276   -984.673757
PE15  10609.961835 -18320.373473 -20673.685238    869.814551
PE18 -12271.745800 -18088.686940 -24114.487425  -1083.301444
PE19 -16487.713681  15554.790981  19046.892149   -878.578990
PE21 -24863.591493 -11037.062100 -11674.530326   -594.556043
PE24  18140.769525  22223.092679  -7356.402364   5497.402568
PE25  24868.831155  11142.506229  11559.463304   -509.354785
PE26 -26485.641234    204.803016 -13214.718837   3280.645276
PE27 -18386.259682 -22052.618008   7182.605596    236.872465
PE30   -730.497567 -19968.787354  21819.616587   3970.955372
PE31   1145.501333  20065.210498 -21729.512278   -472.337760
PE33 -26105.152443  13060.895786   4963.926390   -468.191108
PE36  26283.278740   -172.916290  13608.877651    570.491460
PG01  -8220.776129 -13892.724256 -21370.384192   -362.588956
PG02 -15442.883660  14087.857378  16989.523673   -442.678055
PG03 -12307.193478 -23294.405026  -3829.408550   -151.323635
PG04  -3777.763429 -19333.576383  17813.279237    -78.733169
PG05  -4282.069629  17601.931386  19222.254455    -11.199035
PG06 -23936.605537   7517.348749   8843.831912   -256.444837
PG07 -23709.611205  -6525.396309  10938.867796   -262.980131
PG08   4846.898175 -24393.255980  -8932.373864    -31.284557
PG09 -12433.444150  -9372.808469  21467.284756   -201.621154
PG10  18180.976685   3424.626353 -19055.765997   -316.261254
PG11   2250.394539 -18653.846374 -19366.292966   -299.811334
PG12   9604.361976  24303.366344  -5455.934777    127.078761
PG13 -12790.070198  23036.590187  -3055.642187      3.650900
PG14  18060.035762 -16193.247195 -10251.345216    -18.342165
PG15  -1485.421508  24633.179764  -9611.691082   -236.677086
PG16   4785.923180 -17698.999314  18827.581600   -148.818666
PG17 -17889.451339   7890.734536 -17534.004081    251.860891
PG18  21452.291882   8381.859713  13261.674989    163.037193
PG19 -18814.882791  14271.980920 -12443.525380   -169.505141
PG20  21193.332479  12368.681506 -10509.543678    527.796123
PG21  23550.860834   5214.654664  11574.088507    -11.709217
PG22  -6870.525589 -22745.751574 -11776.960220   -784.375119
PG23 -10086.336946 -13773.997081  20649.182164   -120.596789
PG24   6659.106069  14878.563272 -21209.715580    -11.971444
PG25  16847.262004  20259.933038   4100.467468     -1.859328
PG26  12731.224389  -8844.272280  21531.497534    191.195962
PG27  12371.063971 -23255.255648   1176.583798   -272.109787
PG28 -16820.087108  -3246.626554 -19673.472294    723.898222
PG29   9277.606888  12392.018293  21537.815880    -85.589509
PG30 -26666.599067    724.885768     78.647624   -202.628476
PG31  23544.694397  -7899.262259   9986.025304    -37.256232
PG32  17913.839485  -9114.586087 -17210.383256    263.791659
PJ01 -25684.331377  26124.751392  25889.458625   -319.658246
PJ02 -25217.130761  16057.181572 -25300.914218     -2.473299
PJ03 -27284.869837  31751.203866   -702.831925     -2.164558
PJ07 -25360.990892  33694.661375     37.988829      0.013050
PR01   5573.013571  23741.968900  -7444.657422     60.312119
PR02  10844.553872   6850.356230 -22013.629182    422.758096
PR03   8924.754152 -12419.884779 -20354.025218     13.634167
PR04   1781.261808 -24410.450135  -7152.366754     46.265264
PR05  -6185.711566 -22572.338730  10135.704595     48.991298
PR07  -8793.445342  13028.999972  20143.142544    -35.671936
PR08  -1925.219663  24398.500868   7270.676483    -51.752517
PR09 -23148.189745  -6690.420691  -8463.842854    128.301321
PR11    810.462724  12413.506437 -22252.569785    -20.832047
PR12  16573.756007  14773.042537 -12558.475169    124.156309
PR13  23481.296936   8693.317733   4847.228630    -37.651087
PR14  16378.168867  -2317.712004  19419.488582     50.363341
PR15     30.917415 -11949.392993  22550.642748    106.359991
PR16 -17091.639147 -14449.968941  12093.219624     -2.932145
PR17  21731.325241 -13229.107416   2063.608251    318.775931
PR18  13264.062622 -16393.664276 -14291.815652     32.672938
PR19  -1574.341291 -11060.042010 -22930.814797    -89.573580
PR20 -18033.592938   1789.024304 -17968.894377   -409.628767
PR21 -21555.708224  13574.937329  -1117.388288   -119.252507
PR22 -11350.820529  16070.315009  16316.105220      2.573001
PR23   8094.642169   7088.899714  23119.218542    300.410824
PR24  18592.841333  -2063.616787  17359.703773     -5.008388
PR26 -15049.431400  -1174.874799 -20543.770788   -398.683686
EOF
